CUBEBUG-2 (LO-74)       
1 39440U 13066AA  26156.80918560  .00005560  00000+0  51354-3 0  9999
2 39440  97.8908 105.7402 0059435  65.9901 294.7524 14.93668030675290
FUNCUBE-1 (AO-73)       
1 39444U 13066AE  26156.72056139  .00007673  00000+0  47823-3 0  9992
2 39444  97.8279 127.9286 0034657 241.2535 118.5210 15.09347901677939
UWE-3                   
1 39446U 13066AG  26156.38457537  .00004324  00000+0  37270-3 0  9998
2 39446  97.8699 112.3806 0049229   1.0820 359.0498 14.96928204675814
UNISAT-6                
1 40012U 14033C   26156.70319073  .00004032  00000+0  43462-3 0  9998
2 40012  97.7873 309.6189 0046454 106.0536 254.5803 14.88181134644459
DUCHIFAT-1              
1 40021U 14033M   26156.43696292  .00091631  00000+0  10321-2 0  9997
2 40021  98.0469 213.9697 0004709 135.9979 224.1653 15.62240333653911
QB50P1                  
1 40025U 14033R   26156.28625995  .00008026  00000+0  39735-3 0  9993
2 40025  98.0971 166.5996 0007025 264.5036  95.5395 15.18070423651222
LILACSAT-2              
1 40908U 15049K   26156.40311003  .00016866  00000+0  29144-3 0  9991
2 40908  97.4655 192.7995 0005343 302.5632  57.5104 15.51038852593925
FOX-1A (AO-85)          
1 40967U 15058D   26156.81551414  .00003743  00000+0  33712-3 0  9999
2 40967  64.7765 314.3220 0129861  61.0355 300.3704 14.90911959111878
CAS-2T & KS-1Q          
1 41847U 16066G   26156.46601537  .00001782  00000+0  25737-3 0  9999
2 41847  98.3816 232.3358 0342355 164.9515 196.2178 14.44654069503106
RADFXSAT (FOX-1B)       
1 43017U 17073E   26156.36694125  .00009261  00000+0  40440-3 0  9991
2 43017  97.4713  23.8246 0151376  10.1794 350.2442 15.12507922463601
DIWATA-2B               
1 43678U 18084H   26156.83275079  .00003032  00000+0  24619-3 0  9992
2 43678  98.1156 352.5494 0011826 208.0097 152.0491 15.00397499414510
ES'HAIL 2               
1 43700U 18090A   26156.63957595  .00000157  00000+0  00000+0 0  9992
2 43700   0.0169   6.1871 0001956 102.4053  41.5169  1.00273110 27562
FOX-1CLIFF (AO-95)      
1 43770U 18099N   26156.08244416  .00010962  00000+0  42280-3 0  9993
2 43770  97.4389 216.3757 0009283  40.1659 320.0264 15.26442922411371
ITASAT                  
1 43786U 18099AE  26156.36171225  .00007415  00000+0  35770-3 0  9993
2 43786  97.4030 208.1104 0013338  40.5492 319.6733 15.18900130411119
JY1SAT (JO-97)          
1 43803U 18099AX  26156.08899900  .00015845  00000+0  49499-3 0  9998
2 43803  97.4134 218.8851 0004294 322.9431  37.1514 15.33253592411773
UWE-4                   
1 43880U 18111E   26156.04483588  .00034971  00000+0  73225-3 0  9990
2 43880  97.5859  83.8833 0007898  27.7618 332.4050 15.45332944408902
TIANYAN 01              
1 44881U 19093C   26156.87078661  .00000331  00000+0  43349-4 0  9993
2 44881  97.7530 229.3781 0014730 120.5462 239.7209 14.86497672349737
RS-44 & BREEZE-KM R/B   
1 44909U 19096E   26156.51249477  .00000011  00000+0 -45461-5 0  9997
2 44909  82.5218 347.4646 0217652 171.4058 189.0869 12.79748592300858
SALSAT                  
1 46495U 20068K   26156.50196862  .00008465  00000+0  29742-3 0  9990
2 46495  97.8853 158.8572 0009210 354.5258   5.5879 15.29623212313576
XW-3 (CAS-9)            
1 50466U 21131B   26156.87808179  .00000298  00000+0  10563-3 0  9993
2 50466  98.4977 249.3291 0005092 122.4760 237.6922 14.41346043233486
GREENCUBE (IO-117)      
1 53109U 22080E   26152.46502029 -.00000003  00000+0  00000+0 0  9996
2 53109  70.1435 303.7143 0008869 293.3663  66.6064  6.42583280 91055
UMKA 1 (RS40S)          
1 57172U 23091G   26156.71069500  .00007719  00000+0  35360-3 0  9998
2 57172  97.5051 215.4529 0013615 153.9596 206.2326 15.20682241162262
CUBESX-HSE 3 (RS42S)    
1 57178U 23091N   26156.60585060  .00014723  00000+0  49411-3 0  9991
2 57178  97.5091 222.0491 0012038 130.4685 229.7608 15.30909781162659
MONITOR-3 (RS58S)       
1 57180U 23091Q   26156.80152390  .00014439  00000+0  53601-3 0  9992
2 57180  97.5082 220.1658 0012905 136.1740 224.0525 15.27605404162550
MONITOR-4 (RS57S)       
1 57182U 23091S   26156.78125031  .00011816  00000+0  43804-3 0  9993
2 57182  97.5077 220.1159 0012901 136.5549 223.6709 15.27699899162559
MONITOR-2 (RS39S)       
1 57184U 23091U   26156.78353024  .00006005  00000+0  29135-3 0  9995
2 57184  97.5073 215.1407 0012196 146.3854 213.8157 15.18800262162221
SVYATOBOR 1 (RS60S)     
1 57187U 23091X   26156.78464730  .00010748  00000+0  41482-3 0  9993
2 57187  97.5089 220.5400 0010803 128.7909 231.4296 15.26414953162577
VIZARD-METEO (RS38S)    
1 57189U 23091Z   26156.81103561  .00022128  00000+0  63883-3 0  9995
2 57189  97.5090 226.0713 0008746 111.2948 248.9230 15.35653924162947
POLYTECH-UNIVERSE 3 (R*)
1 57191U 23091AB  26156.81223307  .00006106  00000+0  29409-3 0  9993
2 57191  97.5048 214.6739 0016078 163.5854 196.5904 15.19002544162222
UTMN 2 (RS27S)          
1 57203U 23091AP  26156.82577549  .00016795  00000+0  54884-3 0  9998
2 57203  97.5087 223.8918 0009466 117.5137 242.7067 15.31765138162803
